[{"OBJECT_NAME":"COSMOS 2576","OBJECT_ID":"2024-092A","EPOCH":"2026-03-09T19:49:29.705664","MEAN_MOTION":15.27760963,"ECCENTRICITY":0.0005946,"INCLINATION":97.4253,"RA_OF_ASC_NODE":186.0053,"ARG_OF_PERICENTER":159.7731,"MEAN_ANOMALY":200.3745,"EPHEMERIS_TYPE":0,"CLASSIFICATION_TYPE":"U","NORAD_CAT_ID":59773,"ELEMENT_SET_NO":999,"REV_AT_EPOCH":10127,"BSTAR":0.00056283,"MEAN_MOTION_DOT":0.00015211,"MEAN_MOTION_DDOT":0},{"OBJECT_NAME":"STARLINK-32399","OBJECT_ID":"2024-191G","EPOCH":"2026-03-09T05:47:24.329184","MEAN_MOTION":15.2756883,"ECCENTRICITY":2.825e-5,"INCLINATION":42.9975,"RA_OF_ASC_NODE":149.6043,"ARG_OF_PERICENTER":252.0749,"MEAN_ANOMALY":108.0072,"EPHEMERIS_TYPE":0,"CLASSIFICATION_TYPE":"U","NORAD_CAT_ID":61627,"ELEMENT_SET_NO":999,"REV_AT_EPOCH":7755,"BSTAR":8.372984e-6,"MEAN_MOTION_DOT":-3.1e-7,"MEAN_MOTION_DDOT":0}]
