COSMOS 2576             
1 59773U 24092A   26068.82603826  .00015211  00000+0  56283-3 0  9991
2 59773  97.4253 186.0053 0005946 159.7731 200.3745 15.27760963101271
STARLINK-32399          
1 61627U 24191G   26068.24125381 -.00000031  00000+0  83730-5 0  9997
2 61627  42.9975 149.6043 0000282 252.0749 108.0072 15.27568830 77555
